NORAD_CAT_ID,OBJECT_NAME,OBJECT_TYPE,EPOCH,MEAN_MOTION,ECCENTRICITY,INCLINATION,RA_OF_ASC_NODE,ARG_OF_PERICENTER,MEAN_ANOMALY,BSTAR,MEAN_MOTION_DOT,MEAN_MOTION_DDOT,TLE_LINE0,TLE_LINE1,TLE_LINE2,SEMIMAJOR_AXIS,PERIOD,APOGEE,PERIGEE,DECAYED
51855.0,STARLINK-3545,PAYLOAD,2024-01-14 02:16:08,15.08853867,0.0001437,53.2185,305.7161,110.746,249.3686,8.7455e-05,1.105e-05,0.0,0 STARLINK-3545,1 51855U 22022D   24014.09454162  .00001105  00000-0  87455-4 0  9994,2 51855  53.2185 305.7161 0001437 110.7460 249.3686 15.08853867104371,6917.838,95.437,540.697,538.709,0.0
51855.0,STARLINK-3545,PAYLOAD,2024-01-14 05:26:54,15.08854758,0.0001437,53.2185,305.1212,112.0734,248.0411,9.724e-05,1.261e-05,0.0,0 STARLINK-3545,1 51855U 22022D   24014.22702015  .00001261  00000-0  97240-4 0  9998,2 51855  53.2185 305.1212 0001437 112.0734 248.0411 15.08854758104395,6917.835,95.437,540.694,538.706,0.0
51855.0,STARLINK-3545,PAYLOAD,2024-01-14 19:45:23,15.08839889,0.0001485,53.2188,302.4429,106.9015,253.214,0.00011624,1.562e-05,0.0,0 STARLINK-3545,1 51855U 22022D   24014.82319140  .00001562  00000-0  11624-3 0  9992,2 51855  53.2188 302.4429 0001485 106.9015 253.2140 15.08839889104480,6917.881,95.438,540.773,538.718,0.0
51855.0,STARLINK-3545,PAYLOAD,2024-01-14 22:56:09,15.08844618,0.0001496,53.2183,301.8468,104.0795,256.0364,0.00013791,1.908e-05,0.0,0 STARLINK-3545,1 51855U 22022D   24014.95566766  .00001908  00000-0  13791-3 0  9995,2 51855  53.2183 301.8468 0001496 104.0795 256.0364 15.08844618104505,6917.866,95.437,540.766,538.696,0.0
51855.0,STARLINK-3545,PAYLOAD,2024-01-15 00:31:32,15.08845087,0.0001608,53.2186,301.5513,106.8684,253.2485,0.00015913,2.246e-05,0.0,0 STARLINK-3545,1 51855U 22022D   24015.02190730  .00002246  00000-0  15913-3 0  9992,2 51855  53.2186 301.5513 0001608 106.8684 253.2485 15.08845087104513,6917.865,95.437,540.842,538.617,0.0
51855.0,STARLINK-3545,PAYLOAD,2024-01-16 03:33:06,15.0884533,0.0001585,53.2189,296.4991,102.6908,257.4262,2.8027e-05,1.58e-06,0.0,0 STARLINK-3545,1 51855U 22022D   24016.14799141  .00000158  00000-0  28027-4 0  9998,2 51855  53.2189 296.4991 0001585 102.6908 257.4262 15.08845330104683,6917.864,95.437,540.826,538.633,0.0
51855.0,STARLINK-3545,PAYLOAD,2024-01-16 22:37:44,15.08840073,0.0001582,53.2188,292.93,102.1442,257.9727,-3.4262e-06,-3.43e-06,0.0,0 STARLINK-3545,1 51855U 22022D   24016.94287641 -.00000343  00000-0 -34262-5 0  9990,2 51855  53.2188 292.9300 0001582 102.1442 257.9727 15.08840073104806,6917.88,95.438,540.84,538.651,0.0
51855.0,STARLINK-3545,PAYLOAD,2024-01-17 01:48:30,15.08844003,0.000148,53.2183,292.337,92.9314,267.1847,3.1665e-05,2.16e-06,0.0,0 STARLINK-3545,1 51855U 22022D   24017.07535238  .00000216  00000-0  31665-4 0  9993,2 51855  53.2183 292.3370 0001480  92.9314 267.1847 15.08844003104828,6917.868,95.437,540.757,538.709,0.0
51855.0,STARLINK-3545,PAYLOAD,2024-01-17 22:28:31,15.08838941,0.0001254,53.217,288.4731,106.1945,253.9185,8.4899e-06,-1.53e-06,0.0,0 STARLINK-3545,1 51855U 22022D   24017.93647977 -.00000153  00000-0  84899-5 0  9991,2 51855  53.2170 288.4731 0001254 106.1945 253.9185 15.08838941104954,6917.884,95.438,540.616,538.881,0.0
51855.0,STARLINK-3545,PAYLOAD,2024-01-18 03:14:40,15.08848782,0.000137,53.218,287.5775,97.6386,262.4761,9.6302e-05,1.245e-05,0.0,0 STARLINK-3545,1 51855U 22022D   24018.13519099  .00001245  00000-0  96302-4 0  9990,2 51855  53.2180 287.5775 0001370  97.6386 262.4761 15.08848782104987,6917.854,95.437,540.666,538.771,0.0
51855.0,STARLINK-3545,PAYLOAD,2024-01-18 22:19:17,15.08852276,0.0001348,53.2173,284.0104,135.4831,224.627,0.00011632,1.564e-05,0.0,0 STARLINK-3545,1 51855U 22022D   24018.93006461  .00001564  00000-0  11632-3 0  9998,2 51855  53.2173 284.0104 0001348 135.4831 224.6270 15.08852276105101,6917.843,95.437,540.64,538.775,0.0
51855.0,STARLINK-3545,PAYLOAD,2024-01-19 03:05:26,15.08867891,0.0001754,53.2188,283.117,70.734,289.3842,0.00030923,4.64e-05,0.0,0 STARLINK-3545,1 51855U 22022D   24019.12877352  .00004640  00000-0  30923-3 0  9997,2 51855  53.2188 283.1170 0001754  70.7340 289.3842 15.08867891105132,6917.795,95.436,540.874,538.447,0.0
51855.0,STARLINK-3545,PAYLOAD,2024-01-19 17:23:56,15.08843486,0.0001481,53.218,280.4415,91.1341,268.9821,-2.1306e-06,-3.22e-06,0.0,0 STARLINK-3545,1 51855U 22022D   24019.72495406 -.00000322  00000-0 -21306-5 0  9991,2 51855  53.2180 280.4415 0001481  91.1341 268.9821 15.08843486105225,6917.87,95.437,540.759,538.71,0.0
51855.0,STARLINK-3545,PAYLOAD,2024-01-19 20:34:42,15.0884317,0.0001271,53.2172,279.8477,90.7463,269.3675,-2.4053e-06,-3.26e-06,0.0,0 STARLINK-3545,1 51855U 22022D   24019.85743324 -.00000326  00000-0 -24053-5 0  9996,2 51855  53.2172 279.8477 0001271  90.7463 269.3675 15.08843170105247,6917.871,95.437,540.615,538.856,0.0
51855.0,STARLINK-3545,PAYLOAD,2024-01-20 02:56:14,15.08847585,0.0001262,53.2175,278.6572,93.2303,266.8833,3.7775e-05,3.13e-06,0.0,0 STARLINK-3545,1 51855U 22022D   24020.12238821  .00000313  00000-0  37775-4 0  9997,2 51855  53.2175 278.6572 0001262  93.2303 266.8833 15.08847585105280,6917.857,95.437,540.595,538.849,0.0
51855.0,STARLINK-3545,PAYLOAD,2024-01-20 22:00:52,15.08844329,0.0001366,53.2178,275.0855,113.0568,247.0568,-0.00017738,-3.11e-05,0.0,0 STARLINK-3545,1 51855U 22022D   24020.91727535 -.00003110  00000-0 -17738-3 0  9995,2 51855  53.2178 275.0855 0001366 113.0568 247.0568 15.08844329105400,6917.867,95.437,540.677,538.787,0.0
51855.0,STARLINK-3545,PAYLOAD,2024-01-20 23:36:15,15.08844682,0.000135,53.218,274.788,105.9058,254.2083,-0.00017185,-3.022e-05,0.0,0 STARLINK-3545,1 51855U 22022D   24020.98351499 -.00003022  00000-0 -17185-3 0  9992,2 51855  53.2180 274.7880 0001350 105.9058 254.2083 15.08844682105419,6917.866,95.437,540.665,538.797,0.0
51855.0,STARLINK-3545,PAYLOAD,2024-01-21 21:51:39,15.08841116,0.0001238,53.2171,270.6283,93.427,266.6864,9.9442e-05,1.295e-05,0.0,0 STARLINK-3545,1 51855U 22022D   24021.91087436  .00001295  00000-0  99442-4 0  9998,2 51855  53.2171 270.6283 0001238  93.4270 266.6864 15.08841116105551,6917.877,95.437,540.598,538.886,0.0
51855.0,STARLINK-3545,PAYLOAD,2024-01-21 23:27:02,15.08848785,0.0001468,53.2173,270.3272,104.4166,255.6989,3.2325e-05,2.27e-06,0.0,0 STARLINK-3545,1 51855U 22022D   24021.97711060  .00000227  00000-0  32325-4 0  9992,2 51855  53.2173 270.3272 0001468 104.4166 255.6989 15.08848785105566,6917.854,95.437,540.734,538.703,0.0
51855.0,STARLINK-3545,PAYLOAD,2024-01-22 20:07:04,15.08826475,0.0001285,53.2167,266.4659,97.7157,262.3981,0.00023414,3.439e-05,0.0,0 STARLINK-3545,1 51855U 22022D   24022.83824417  .00003439  00000-0  23414-3 0  9995,2 51855  53.2167 266.4659 0001285  97.7157 262.3981 15.08826475105698,6917.922,95.438,540.676,538.898,0.0
51855.0,STARLINK-3545,PAYLOAD,2024-01-22 21:42:27,15.08827489,0.0001275,53.2165,266.1688,97.1018,263.0119,0.000223,3.262e-05,0.0,0 STARLINK-3545,1 51855U 22022D   24022.90448366  .00003262  00000-0  22300-3 0  9995,2 51855  53.2165 266.1688 0001275  97.1018 263.0119 15.08827489105703,6917.919,95.438,540.666,538.902,0.0
51855.0,STARLINK-3545,PAYLOAD,2024-01-23 21:33:13,15.08844162,0.0001354,53.2162,261.7074,103.419,256.6953,7.3178e-05,8.77e-06,0.0,0 STARLINK-3545,1 51855U 22022D   24023.89807832  .00000877  00000-0  73178-4 0  9990,2 51855  53.2162 261.7074 0001354 103.4190 256.6953 15.08844162105857,6917.868,95.437,540.669,538.796,0.0
51855.0,STARLINK-3545,PAYLOAD,2024-01-23 23:08:37,15.08845787,0.0001298,53.2163,261.4109,93.2861,266.8279,8.3784e-05,1.046e-05,0.0,0 STARLINK-3545,1 51855U 22022D   24023.96431729  .00001046  00000-0  83784-4 0  9999,2 51855  53.2163 261.4109 0001298  93.2861 266.8279 15.08845787105861,6917.863,95.437,540.626,538.83,0.0
51855.0,STARLINK-3545,PAYLOAD,2024-01-24 19:48:38,15.0883704,0.0001327,53.2163,257.5468,77.3757,282.7383,5.9479e-05,6.59e-06,0.0,0 STARLINK-3545,1 51855U 22022D   24024.82544643  .00000659  00000-0  59479-4 0  9998,2 51855  53.2163 257.5468 0001327  77.3757 282.7383 15.08837040105995,6917.889,95.438,540.672,538.836,0.0
51855.0,STARLINK-3545,PAYLOAD,2024-01-24 21:24:01,15.08836944,0.0001342,53.2162,257.2495,77.2333,282.8809,5.3799e-05,5.68e-06,0.0,0 STARLINK-3545,1 51855U 22022D   24024.89168629  .00000568  00000-0  53799-4 0  9999,2 51855  53.2162 257.2495 0001342  77.2333 282.8809 15.08836944106006,6917.89,95.438,540.683,538.826,0.0
51855.0,STARLINK-3545,PAYLOAD,2024-01-24 22:59:24,15.08838999,0.0001387,53.2164,256.9516,75.8356,284.279,6.4811e-05,7.44e-06,0.0,0 STARLINK-3545,1 51855U 22022D   24024.95792476  .00000744  00000-0  64811-4 0  9992,2 51855  53.2164 256.9516 0001387  75.8356 284.2790 15.08838999106014,6917.883,95.438,540.708,538.789,0.0
51855.0,STARLINK-3545,PAYLOAD,2024-01-25 21:14:48,15.08839367,0.0001762,53.2172,252.7901,63.3271,296.7901,5.3201e-05,5.59e-06,0.0,0 STARLINK-3545,1 51855U 22022D   24025.88528705  .00000559  00000-0  53201-4 0  9992,2 51855  53.2172 252.7901 0001762  63.3271 296.7901 15.08839367106157,6917.882,95.438,540.966,538.528,0.0
51855.0,STARLINK-3545,PAYLOAD,2024-01-26 21:05:35,15.08844546,0.0001544,53.2168,248.3275,72.8325,287.2836,0.00011646,1.566e-05,0.0,0 STARLINK-3545,1 51855U 22022D   24026.87888118  .00001566  00000-0  11646-3 0  9994,2 51855  53.2168 248.3275 0001544  72.8325 287.2836 15.08844546106304,6917.866,95.437,540.8,538.663,0.0
51855.0,STARLINK-3545,PAYLOAD,2024-01-27 20:56:22,15.08841415,0.0001386,53.2164,243.8669,99.984,260.1309,3.2216e-05,2.25e-06,0.0,0 STARLINK-3545,1 51855U 22022D   24027.87248279  .00000225  00000-0  32216-4 0  9991,2 51855  53.2164 243.8669 0001386  99.9840 260.1309 15.08841415106456,6917.876,95.437,540.7,538.782,0.0
51855.0,STARLINK-3545,PAYLOAD,2024-01-28 00:07:08,15.08841604,0.0001384,53.2164,243.2705,100.8039,259.3109,3.0977e-05,2.05e-06,0.0,0 STARLINK-3545,1 51855U 22022D   24028.00496222  .00000205  00000-0  30977-4 0  9990,2 51855  53.2164 243.2705 0001384 100.8039 259.3109 15.08841604106471,6917.875,95.437,540.698,538.783,0.0
